[{"OBJECT_NAME":"STARLINK-31591","OBJECT_ID":"2024-046G","EPOCH":"2026-03-09T12:16:23.729664","MEAN_MOTION":15.30185711,"ECCENTRICITY":9.043e-5,"INCLINATION":53.1598,"RA_OF_ASC_NODE":156.0696,"ARG_OF_PERICENTER":69.9952,"MEAN_ANOMALY":290.1146,"EPHEMERIS_TYPE":0,"CLASSIFICATION_TYPE":"U","NORAD_CAT_ID":59207,"ELEMENT_SET_NO":999,"REV_AT_EPOCH":11302,"BSTAR":3.173247e-5,"MEAN_MOTION_DOT":5.81e-6,"MEAN_MOTION_DDOT":0},{"OBJECT_NAME":"OBJECT N","OBJECT_ID":"2019-093N","EPOCH":"2026-03-09T21:41:56.087232","MEAN_MOTION":15.29897693,"ECCENTRICITY":0.0006278,"INCLINATION":98.0505,"RA_OF_ASC_NODE":226.9456,"ARG_OF_PERICENTER":33.3806,"MEAN_ANOMALY":326.7828,"EPHEMERIS_TYPE":0,"CLASSIFICATION_TYPE":"U","NORAD_CAT_ID":44891,"ELEMENT_SET_NO":999,"REV_AT_EPOCH":33957,"BSTAR":0.0010567776,"MEAN_MOTION_DOT":0.00030617,"MEAN_MOTION_DDOT":0}]
